[{"OBJECT_NAME":"PUJIANG 2 (PJ-2)","OBJECT_ID":"2022-031B","EPOCH":"2026-03-09T23:59:30.994656","MEAN_MOTION":14.94193409,"ECCENTRICITY":0.00120718,"INCLINATION":97.86,"RA_OF_ASC_NODE":254.4415,"ARG_OF_PERICENTER":164.7982,"MEAN_ANOMALY":195.3603,"EPHEMERIS_TYPE":0,"CLASSIFICATION_TYPE":"U","NORAD_CAT_ID":52151,"ELEMENT_SET_NO":999,"REV_AT_EPOCH":21498,"BSTAR":0.00020001428,"MEAN_MOTION_DOT":2.087e-5,"MEAN_MOTION_DDOT":0},{"OBJECT_NAME":"METOP-A","OBJECT_ID":"2006-044A","EPOCH":"2026-03-09T22:42:22.748832","MEAN_MOTION":14.75579804,"ECCENTRICITY":0.01753829,"INCLINATION":98.3242,"RA_OF_ASC_NODE":172.6157,"ARG_OF_PERICENTER":26.1658,"MEAN_ANOMALY":115.682,"EPHEMERIS_TYPE":0,"CLASSIFICATION_TYPE":"U","NORAD_CAT_ID":29499,"ELEMENT_SET_NO":999,"REV_AT_EPOCH":1081,"BSTAR":0.00024290621,"MEAN_MOTION_DOT":2.062e-5,"MEAN_MOTION_DDOT":0}]
